{
  "type": "FeatureCollection",
  "features": [
    {
      "type": "Feature",
      "properties": {
        "norad_id": 66365,
        "name": "STARLINK-35827",
        "group": "last-30-days",
        "lat": -32.77833792934606,
        "lon": 163.69209756198094,
        "alt_km": 399.5049733096939,
        "timestamp": "2025-12-04T17:48:38.961908+00:00",
        "meta_object_name": "STARLINK-35827",
        "meta_object_id": "2025-254T",
        "meta_epoch": "2025-12-04T08:00:01.999872",
        "meta_mean_motion": 15.59337195,
        "meta_eccentricity": 0.00013801,
        "meta_inclination": 53.1594,
        "meta_ra_of_asc_node": 316.8073,
        "meta_arg_of_pericenter": 72.3213,
        "meta_mean_anomaly": 15.5684,
        "meta_ephemeris_type": 0,
        "meta_classification_type": "U",
        "meta_norad_cat_id": 66365,
        "meta_element_set_no": 999,
        "meta_rev_at_epoch": 554,
        "meta_bstar": -0.028415725,
        "meta_mean_motion_dot": -0.020019,
        "meta_mean_motion_ddot": 0,
        "tle_line1": "1 66365U 25254T   25338.33335648 -.02001900  00000+0 -28416-1 0  9995",
        "tle_line2": "2 66365  53.1594 316.8073 0001380  72.3213  15.5684 15.59337195  5544"
      },
      "geometry": {
        "type": "Point",
        "coordinates": [
          163.69209756198094,
          -32.77833792934606
        ]
      }
    },
    {
      "type": "Feature",
      "properties": {
        "norad_id": 66366,
        "name": "STARLINK-35845",
        "group": "last-30-days",
        "lat": -31.425723438488966,
        "lon": 162.09372773589604,
        "alt_km": 399.37986655540317,
        "timestamp": "2025-12-04T17:48:38.961918+00:00",
        "meta_object_name": "STARLINK-35845",
        "meta_object_id": "2025-254U",
        "meta_epoch": "2025-12-04T08:00:01.999872",
        "meta_mean_motion": 15.59337717,
        "meta_eccentricity": 0.00012649,
        "meta_inclination": 53.1592,
        "meta_ra_of_asc_node": 316.8105,
        "meta_arg_of_pericenter": 66.1356,
        "meta_mean_anomaly": 19.8375,
        "meta_ephemeris_type": 0,
        "meta_classification_type": "U",
        "meta_norad_cat_id": 66366,
        "meta_element_set_no": 999,
        "meta_rev_at_epoch": 557,
        "meta_bstar": -0.028430713,
        "meta_mean_motion_dot": -0.02002776,
        "meta_mean_motion_ddot": 0,
        "tle_line1": "1 66366U 25254U   25338.33335648 -.02002776  00000+0 -28431-1 0  9995",
        "tle_line2": "2 66366  53.1592 316.8105 0001264  66.1356  19.8375 15.59337717  5576"
      },
      "geometry": {
        "type": "Point",
        "coordinates": [
          162.09372773589604,
          -31.425723438488966
        ]
      }
    },
    {
      "type": "Feature",
      "properties": {
        "norad_id": 66367,
        "name": "STARLINK-35846",
        "group": "last-30-days",
        "lat": -34.10860069541303,
        "lon": 165.33624570337233,
        "alt_km": 399.5825707943368,
        "timestamp": "2025-12-04T17:48:38.961928+00:00",
        "meta_object_name": "STARLINK-35846",
        "meta_object_id": "2025-254V",
        "meta_epoch": "2025-12-04T08:00:01.999872",
        "meta_mean_motion": 15.59341129,
        "meta_eccentricity": 0.00013286,
        "meta_inclination": 53.1593,
        "meta_ra_of_asc_node": 316.8022,
        "meta_arg_of_pericenter": 71.0006,
        "meta_mean_anomaly": 18.8048,
        "meta_ephemeris_type": 0,
        "meta_classification_type": "U",
        "meta_norad_cat_id": 66367,
        "meta_element_set_no": 999,
        "meta_rev_at_epoch": 552,
        "meta_bstar": -0.02850264,
        "meta_mean_motion_dot": -0.02007486,
        "meta_mean_motion_ddot": 0,
        "tle_line1": "1 66367U 25254V   25338.33335648 -.02007486  00000+0 -28503-1 0  9999",
        "tle_line2": "2 66367  53.1593 316.8022 0001328  71.0006  18.8048 15.59341129  5527"
      },
      "geometry": {
        "type": "Point",
        "coordinates": [
          165.33624570337233,
          -34.10860069541303
        ]
      }
    },
    {
      "type": "Feature",
      "properties": {
        "norad_id": 66368,
        "name": "STARLINK-34861",
        "group": "last-30-days",
        "lat": -13.82055753020496,
        "lon": -56.05279676425991,
        "alt_km": 349.09885313563973,
        "timestamp": "2025-12-04T17:48:38.961938+00:00",
        "meta_object_name": "STARLINK-34861",
        "meta_object_id": "2025-254W",
        "meta_epoch": "2025-12-04T05:41:56.857632",
        "meta_mean_motion": 15.74490031,
        "meta_eccentricity": 0.00031358,
        "meta_inclination": 53.1567,
        "meta_ra_of_asc_node": 317.0842,
        "meta_arg_of_pericenter": 150.4773,
        "meta_mean_anomaly": 209.6425,
        "meta_ephemeris_type": 0,
        "meta_classification_type": "U",
        "meta_norad_cat_id": 66368,
        "meta_element_set_no": 999,
        "meta_rev_at_epoch": 434,
        "meta_bstar": 0.003559695,
        "meta_mean_motion_dot": 0.00564403,
        "meta_mean_motion_ddot": 0,
        "tle_line1": "1 66368U 25254W   25338.23746363  .00564403  00000+0  35597-2 0  9994",
        "tle_line2": "2 66368  53.1567 317.0842 0003135 150.4773 209.6425 15.74490031  4345"
      },
      "geometry": {
        "type": "Point",
        "coordinates": [
          -56.05279676425991,
          -13.82055753020496
        ]
      }
    },
    {
      "type": "Feature",
      "properties": {
        "norad_id": 66369,
        "name": "STARLINK-35795",
        "group": "last-30-days",
        "lat": -15.565181495702753,
        "lon": -57.47447104328475,
        "alt_km": 350.00446364807976,
        "timestamp": "2025-12-04T17:48:38.961948+00:00",
        "meta_object_name": "STARLINK-35795",
        "meta_object_id": "2025-254X",
        "meta_epoch": "2025-12-04T02:39:36.815328",
        "meta_mean_motion": 15.74349696,
        "meta_eccentricity": 0.00030446,
        "meta_inclination": 53.1567,
        "meta_ra_of_asc_node": 317.7168,
        "meta_arg_of_pericenter": 147.1731,
        "meta_mean_anomaly": 212.9479,
        "meta_ephemeris_type": 0,
        "meta_classification_type": "U",
        "meta_norad_cat_id": 66369,
        "meta_element_set_no": 999,
        "meta_rev_at_epoch": 432,
        "meta_bstar": 0.0021458163,
        "meta_mean_motion_dot": 0.00328479,
        "meta_mean_motion_ddot": 0,
        "tle_line1": "1 66369U 25254X   25338.11084277  .00328479  00000+0  21458-2 0  9993",
        "tle_line2": "2 66369  53.1567 317.7168 0003044 147.1731 212.9479 15.74349696  4324"
      },
      "geometry": {
        "type": "Point",
        "coordinates": [
          -57.47447104328475,
          -15.565181495702753
        ]
      }
    },
    {
      "type": "Feature",
      "properties": {
        "norad_id": 66370,
        "name": "STARLINK-35824",
        "group": "last-30-days",
        "lat": -12.225311658968849,
        "lon": -54.77682731936481,
        "alt_km": 346.7893347530817,
        "timestamp": "2025-12-04T17:48:38.961962+00:00",
        "meta_object_name": "STARLINK-35824",
        "meta_object_id": "2025-254Y",
        "meta_epoch": "2025-12-04T02:38:39.081120",
        "meta_mean_motion": 15.74459234,
        "meta_eccentricity": 3.668e-05,
        "meta_inclination": 53.1568,
        "meta_ra_of_asc_node": 317.7129,
        "meta_arg_of_pericenter": 67.6917,
        "meta_mean_anomaly": 292.4142,
        "meta_ephemeris_type": 0,
        "meta_classification_type": "U",
        "meta_norad_cat_id": 66370,
        "meta_element_set_no": 999,
        "meta_rev_at_epoch": 432,
        "meta_bstar": 0.0031685267,
        "meta_mean_motion_dot": 0.00497732,
        "meta_mean_motion_ddot": 0,
        "tle_line1": "1 66370U 25254Y   25338.11017455  .00497732  00000+0  31685-2 0  9991",
        "tle_line2": "2 66370  53.1568 317.7129 0000366  67.6917 292.4142 15.74459234  4320"
      },
      "geometry": {
        "type": "Point",
        "coordinates": [
          -54.77682731936481,
          -12.225311658968849
        ]
      }
    },
    {
      "type": "Feature",
      "properties": {
        "norad_id": 66371,
        "name": "STARLINK-35804",
        "group": "last-30-days",
        "lat": 3.8417196704685876,
        "lon": -42.57991895995987,
        "alt_km": 300.47006524166864,
        "timestamp": "2025-12-04T17:48:38.961974+00:00",
        "meta_object_name": "STARLINK-35804",
        "meta_object_id": "2025-254Z",
        "meta_epoch": "2025-12-04T05:40:01.916256",
        "meta_mean_motion": 15.78402207,
        "meta_eccentricity": 0.0022163,
        "meta_inclination": 53.1567,
        "meta_ra_of_asc_node": 317.0759,
        "meta_arg_of_pericenter": 317.8316,
        "meta_mean_anomaly": 42.1,
        "meta_ephemeris_type": 0,
        "meta_classification_type": "U",
        "meta_norad_cat_id": 66371,
        "meta_element_set_no": 999,
        "meta_rev_at_epoch": 434,
        "meta_bstar": 0.042320577,
        "meta_mean_motion_dot": 0.0928972,
        "meta_mean_motion_ddot": 0,
        "tle_line1": "1 66371U 25254Z   25338.23613329  .09289720  00000+0  42321-1 0  9990",
        "tle_line2": "2 66371  53.1567 317.0759 0022163 317.8316  42.1000 15.78402207  4341"
      },
      "geometry": {
        "type": "Point",
        "coordinates": [
          -42.57991895995987,
          3.8417196704685876
        ]
      }
    }
  ]
}